H1 CPF 01  gfz 2022 09 15 12  7582 tandemx   
H2 1003001  6202 36605    2022 09 15 12 59 42 2022 09 20 00 00 42   120 1 1  0 0 0
H9
10 0 59838  43182.000000  0    -427358.918  -5843258.705  -3632191.940
10 0 59838  43302.000000  0    -573795.815  -5305434.757  -4364611.525
10 0 59838  43422.000000  0    -700011.602  -4672948.743  -5020578.710
10 0 59838  43542.000000  0    -802267.936  -3957275.939  -5588697.745
10 0 59838  43662.000000  0    -877459.905  -3171367.150  -6059126.771
10 0 59838  43782.000000  0    -923190.964  -2329407.407  -6423737.776
10 0 59838  43902.000000  0    -937831.196  -1446556.410  -6676245.400
10 0 59838  44022.000000  0    -920558.235   -538676.599  -6812304.459
10 0 59838  44142.000000  0    -871380.107    377948.045  -6829576.811
10 0 59838  44262.000000  0    -791139.149   1286897.394  -6727765.926
10 0 59838  44382.000000  0    -681497.920   2171901.469  -6508621.369
10 0 59838  44502.000000  0    -544907.263   3017124.211  -6175912.452
10 0 59838  44622.000000  0    -384556.042   3807442.656  -5735371.812
10 0 59838  44742.000000  0    -204303.324   4528716.538  -5194606.264
10 0 59838  44862.000000  0      -8594.552   5168043.238  -4562977.065
10 0 59838  44982.000000  0     197637.008   5713995.538  -3851449.029
10 0 59838  45102.000000  0     409082.284   6156835.510  -3072409.078
10 0 59838  45222.000000  0     620179.542   6488699.768  -2239457.304
10 0 59838  45342.000000  0     825246.177   6703752.303  -1367172.689
10 0 59838  45462.000000  0    1018616.090   6798299.466   -470856.758
10 0 59838  45582.000000  0    1194779.355   6770863.511    433739.604
10 0 59838  45702.000000  0    1348520.417   6622211.139   1330700.451
10 0 59838  45822.000000  0    1475050.231   6355337.098   2204232.595
10 0 59838  45942.000000  0    1570129.807   5975404.284   3038951.750
10 0 59838  46062.000000  0    1630182.593   5489640.874   3820161.170
10 0 59838  46182.000000  0    1652391.816   4907195.568   4534116.856
10 0 59838  46302.000000  0    1634781.786   4238955.765   5168273.419
10 0 59838  46422.000000  0    1576278.125   3497331.716   5711503.874
10 0 59838  46542.000000  0    1476749.075   2696018.295   6154289.266
10 0 59838  46662.000000  0    1337026.141   1849735.880   6488881.305
10 0 59838  46782.000000  0    1158903.612    973954.550   6709432.343
10 0 59838  46902.000000  0     945117.168     84608.490   6812090.595
10 0 59838  47022.000000  0     699302.149   -802192.620   6795063.233
10 0 59838  47142.000000  0     425931.557  -1670455.318   6658647.321
10 0 59838  47262.000000  0     130234.536  -2504590.767   6405224.953
10 0 59838  47382.000000  0    -181903.276  -3289695.753   6039224.119
10 0 59838  47502.000000  0    -504054.672  -4011820.161   5567043.348
10 0 59838  47622.000000  0    -829379.488  -4658215.932   4996945.720
10 0 59838  47742.000000  0   -1150766.125  -5217568.210   4338923.329
10 0 59838  47862.000000  0   -1460984.064  -5680203.890   3604527.542
10 0 59838  47982.000000  0   -1752842.328  -6038268.685   2806667.409
10 0 59838  48102.000000  0   -2019351.238  -6285869.230   1959382.561
10 0 59838  48222.000000  0   -2253883.940  -6419177.948   1077592.841
10 0 59838  48342.000000  0   -2450331.822  -6436496.598    176828.952
10 0 59838  48462.000000  0   -2603250.699  -6338277.307   -727049.240
10 0 59838  48582.000000  0   -2707994.206  -6127100.042  -1618140.811
10 0 59838  48702.000000  0   -2760831.311  -5807607.220  -2480791.841
10 0 59838  48822.000000  0   -2759044.801  -5386397.409  -3299877.412
10 0 59838  48942.000000  0   -2701007.792  -4871880.398  -4061071.055
10 0 59838  49062.000000  0   -2586236.751  -4274098.763  -4751094.754
10 0 59838  49182.000000  0   -2415420.765  -3604522.262  -5357945.793
10 0 59838  49302.000000  0   -2190427.296  -2875820.045  -5871097.924
10 0 59838  49422.000000  0   -1914284.175  -2101615.336  -6281674.630
10 0 59838  49542.000000  0   -1591137.582  -1296227.514  -6582591.693
10 0 59838  49662.000000  0   -1226188.510   -474407.563  -6768667.501
10 0 59838  49782.000000  0    -825609.500    348928.367  -6836701.979
10 0 59838  49902.000000  0    -396441.460   1158963.080  -6785525.315
10 0 59838  50022.000000  0      53527.331   1941237.974  -6616015.563
10 0 59838  50142.000000  0     515897.607   2681904.321  -6331086.270
10 0 59838  50262.000000  0     981812.420   3367965.012  -5935643.620
10 0 59838  50382.000000  0    1442122.799   3987501.308  -5436509.674
10 0 59838  50502.000000  0    1887563.191   4529880.864  -4842315.780
10 0 59838  50622.000000  0    2308935.271   4985945.752  -4163365.261
10 0 59838  50742.000000  0    2697295.741   5348175.177  -3411464.195
10 0 59838  50862.000000  0    3044144.469   5610818.878  -2599724.345
10 0 59838  50982.000000  0    3341609.774   5769998.868  -1742339.173
10 0 59838  51102.000000  0    3582625.492   5823775.322   -854336.259
10 0 59838  51222.000000  0    3761094.694   5772174.548     48689.636
10 0 59838  51342.000000  0    3872035.819   5617177.329    950856.700
10 0 59838  51462.000000  0    3911707.821   5362667.237   1836283.069
10 0 59838  51582.000000  0    3877710.998   5014341.434   2689373.910
10 0 59838  51702.000000  0    3769060.599   4579586.186   3495106.095
10 0 59838  51822.000000  0    3586229.701   4067315.420   4239298.856
10 0 59838  51942.000000  0    3331164.718   3487784.153   4908866.741
10 0 59838  52062.000000  0    3007266.806   2852377.443   5492053.274
10 0 59838  52182.000000  0    2619344.175   2173379.106   5978633.464
10 0 59838  52302.000000  0    2173539.454   1463729.720   6360087.894
10 0 59838  52422.000000  0    1677229.139    736775.872   6629746.597
10 0 59838  52542.000000  0    1138898.373      6017.927   6782898.678
10 0 59838  52662.000000  0     567994.429   -715139.354   6816870.278
10 0 59838  52782.000000  0     -25239.540  -1413633.161   6731069.307
10 0 59838  52902.000000  0    -629948.548  -2076979.099   6526994.635
10 0 59838  53022.000000  0   -1234864.207  -2693494.499   6208210.489
10 0 59838  53142.000000  0   -1828512.514  -3252504.206   5780286.719
10 0 59838  53262.000000  0   -2399429.697  -3744527.373   5250708.623
10 0 59838  53382.000000  0   -2936385.519  -4161443.230   4628753.928
10 0 59838  53502.000000  0   -3428608.351  -4496631.062   3925335.308
10 0 59838  53622.000000  0   -3866004.615  -4745080.631   3152811.291
10 0 59838  53742.000000  0   -4239367.995  -4903471.526   2324769.956
10 0 59838  53862.000000  0   -4540575.719  -4970219.901   1455788.423
10 0 59838  53982.000000  0   -4762766.320  -4945489.616    561171.105
10 0 59838  54102.000000  0   -4900493.778  -4831167.740   -343326.847
10 0 59838  54222.000000  0   -4949854.483  -4630805.135  -1241785.768
10 0 59838  54342.000000  0   -4908582.733  -4349522.892  -2118411.519
10 0 59838  54462.000000  0   -4776111.883  -3993886.567  -2957821.391
10 0 59838  54582.000000  0   -4553600.572  -3571753.005  -3745318.440
10 0 59838  54702.000000  0   -4243924.766  -3092094.963  -4467149.736
10 0 59838  54822.000000  0   -3851636.084  -2564807.312  -5110744.263
10 0 59838  54942.000000  0   -3382887.689  -2000499.822  -5664925.672
10 0 59838  55062.000000  0   -2845330.776  -1410281.891  -6120097.295
10 0 59838  55182.000000  0   -2247984.029   -805543.340  -6468397.852
10 0 59838  55302.000000  0   -1601077.914   -197735.982  -6703825.693
10 0 59838  55422.000000  0    -915878.486    401839.392  -6822330.094
10 0 59838  55542.000000  0    -204494.570    982237.384  -6821873.030
10 0 59838  55662.000000  0     520331.231   1533062.685  -6702460.186
10 0 59838  55782.000000  0    1245444.112   2044650.929  -6466142.644
10 0 59838  55902.000000  0    1957511.344   2508235.836  -6116986.385
10 0 59838  56022.000000  0    2643262.778   2916098.488  -5661009.786
10 0 59838  56142.000000  0    3289735.006   3261696.168  -5106088.969
10 0 59838  56262.000000  0    3884515.119   3539769.966  -4461834.127
10 0 59838  56382.000000  0    4415981.862   3746429.306  -3739434.328
10 0 59838  56502.000000  0    4873538.081   3879210.132  -2951471.966
10 0 59838  56622.000000  0    5247827.823   3937105.147  -2111709.030
10 0 59838  56742.000000  0    5530934.141   3920565.979  -1234849.308
10 0 59838  56862.000000  0    5716552.314   3831475.238   -336279.217
10 0 59838  56982.000000  0    5800133.376   3673089.596    568206.350
10 0 59838  57102.000000  0    5778994.703   3449954.391   1462688.850
10 0 59838  57222.000000  0    5652392.727   3167791.177   2331415.100
10 0 59838  57342.000000  0    5421556.512   2833362.353   3159083.414
10 0 59838  57462.000000  0    5089681.074   2454315.371   3931121.588
10 0 59838  57582.000000  0    4661879.398   2039010.043   4633948.907
10 0 59838  57702.000000  0    4145097.950   1596335.120   5255215.259
10 0 59838  57822.000000  0    3547997.706   1135518.645   5784019.680
10 0 59838  57942.000000  0    2880798.578    665934.565   6211098.222
10 0 59838  58062.000000  0    2155097.379    196912.204   6528978.419
10 0 59838  58182.000000  0    1383662.984   -262447.313   6732104.074
10 0 59838  58302.000000  0     580209.006   -703446.891   6816928.686
10 0 59838  58422.000000  0    -240852.135  -1117957.742   6781972.973
10 0 59838  58542.000000  0   -1064667.627  -1498568.624   6627848.335
10 0 59838  58662.000000  0   -1876212.118  -1838718.528   6357245.572
10 0 59838  58782.000000  0   -2660559.531  -2132809.077   5974890.117
10 0 59838  58902.000000  0   -3403157.109  -2376297.258   5487467.453
10 0 59838  59022.000000  0   -4090100.520  -2565768.035   4903513.232
10 0 59838  59142.000000  0   -4708399.419  -2698982.973   4233267.957
10 0 59838  59262.000000  0   -5246229.307  -2774903.763   3488500.845
10 0 59838  59382.000000  0   -5693164.651  -2793690.526   2682305.818
10 0 59838  59502.000000  0   -6040389.436  -2756675.792   1828871.874
10 0 59838  59622.000000  0   -6280879.440  -2666314.673    943229.431
99
